{
  "norad_id": 68706,
  "name": "STARLINK-37319",
  "history": [
    {
      "epoch": "2026-04-23T17:04:42.159648Z",
      "apogee_km": 320.06855164583794,
      "perigee_km": 319.04434036407474,
      "latitude_deg": 1.815837236768095e-05,
      "longitude_deg": 87.30394259950599,
      "height_km": 319.9875270436102,
      "semi_major_axis_km": 6697.693446004956,
      "eccentricity": 7.646e-05,
      "inclination_deg": 53.16,
      "raan_deg": 195.2345,
      "arg_perigee_deg": 17.2118,
      "mean_anomaly_deg": 342.8932,
      "mean_motion_rev_day": 15.83852969
    },
    {
      "epoch": "2026-04-25T08:00:01.999008Z",
      "apogee_km": 328.5978432763377,
      "perigee_km": 327.0863155918323,
      "latitude_deg": -42.90466220587434,
      "longitude_deg": 77.55927748464995,
      "height_km": 342.78763679656004,
      "semi_major_axis_km": 6705.979079434084,
      "eccentricity": 0.0001127,
      "inclination_deg": 53.1601,
      "raan_deg": 187.1021,
      "arg_perigee_deg": 96.4138,
      "mean_anomaly_deg": 141.5096,
      "mean_motion_rev_day": 15.8091846
    },
    {
      "epoch": "2026-04-25T14:35:04.417728Z",
      "apogee_km": 329.6372513469023,
      "perigee_km": 326.37457869588707,
      "latitude_deg": -4.48302901130336e-05,
      "longitude_deg": 113.33327970583902,
      "height_km": 328.5395185200844,
      "semi_major_axis_km": 6706.142915021394,
      "eccentricity": 0.00024326,
      "inclination_deg": 53.1599,
      "raan_deg": 185.7255,
      "arg_perigee_deg": 76.4374,
      "mean_anomaly_deg": 283.6919,
      "mean_motion_rev_day": 15.80860526
    },
    {
      "epoch": "2026-04-27T20:00:03.000384Z",
      "apogee_km": 328.78193418103,
      "perigee_km": 327.07456996785186,
      "latitude_deg": 50.483928500006556,
      "longitude_deg": 83.3279146142933,
      "height_km": 333.092894471372,
      "semi_major_axis_km": 6706.065252074441,
      "eccentricity": 0.0001273,
      "inclination_deg": 53.1595,
      "raan_deg": 174.574,
      "arg_perigee_deg": 44.773,
      "mean_anomaly_deg": 29.3355,
      "mean_motion_rev_day": 15.80887988
    },
    {
      "epoch": "2026-04-28T20:00:01.000224Z",
      "apogee_km": 328.64562293837935,
      "perigee_km": 327.3352456377206,
      "latitude_deg": 6.68581949812388,
      "longitude_deg": 17.765588949203543,
      "height_km": 328.05871159676116,
      "semi_major_axis_km": 6706.12743428805,
      "eccentricity": 9.77e-05,
      "inclination_deg": 53.1584,
      "raan_deg": 169.5628,
      "arg_perigee_deg": 77.9272,
      "mean_anomaly_deg": 290.4974,
      "mean_motion_rev_day": 15.80866
    },
    {
      "epoch": "2026-04-29T20:14:30.038208Z",
      "apogee_km": 329.56944714941346,
      "perigee_km": 325.63317875971006,
      "latitude_deg": 7.2698379981971565e-06,
      "longitude_deg": 3.0764593591335583,
      "height_km": 327.8654213512351,
      "semi_major_axis_km": 6705.7383129545615,
      "eccentricity": 0.0002935,
      "inclination_deg": 53.1582,
      "raan_deg": 164.5003,
      "arg_perigee_deg": 70.6753,
      "mean_anomaly_deg": 289.4587,
      "mean_motion_rev_day": 15.81003604
    },
    {
      "epoch": "2026-04-30T12:55:52.696704Z",
      "apogee_km": 328.17890777692173,
      "perigee_km": 327.2757619683007,
      "latitude_deg": -8.49199914632148e-06,
      "longitude_deg": 108.56161836345042,
      "height_km": 328.7855302969416,
      "semi_major_axis_km": 6705.864334872611,
      "eccentricity": 6.734e-05,
      "inclination_deg": 53.1576,
      "raan_deg": 161.0153,
      "arg_perigee_deg": 108.041,
      "mean_anomaly_deg": 252.0686,
      "mean_motion_rev_day": 15.80959037
    },
    {
      "epoch": "2026-05-02T08:55:56.282016Z",
      "apogee_km": 328.4393748611501,
      "perigee_km": 327.03114168691263,
      "latitude_deg": -1.5442549093842218e-06,
      "longitude_deg": 157.55142565831363,
      "height_km": 328.2568183783001,
      "semi_major_axis_km": 6705.872258274031,
      "eccentricity": 0.000105,
      "inclination_deg": 53.1571,
      "raan_deg": 151.8271,
      "arg_perigee_deg": 55.734,
      "mean_anomaly_deg": 304.3782,
      "mean_motion_rev_day": 15.80956235
    },
    {
      "epoch": "2026-05-03T13:45:36.681408Z",
      "apogee_km": 328.5782810103683,
      "perigee_km": 326.7113913471767,
      "latitude_deg": -6.037006132884387e-05,
      "longitude_deg": 77.9287285849411,
      "height_km": 328.9645846283074,
      "semi_major_axis_km": 6705.781836178772,
      "eccentricity": 0.0001392,
      "inclination_deg": 53.157,
      "raan_deg": 145.8067,
      "arg_perigee_deg": 115.5281,
      "mean_anomaly_deg": 244.5885,
      "mean_motion_rev_day": 15.80988212
    },
    {
      "epoch": "2026-05-04T12:31:09.581088Z",
      "apogee_km": 328.688807709922,
      "perigee_km": 326.83127422957205,
      "latitude_deg": -3.613374839265367e-06,
      "longitude_deg": 90.85480110666657,
      "height_km": 328.4397502419257,
      "semi_major_axis_km": 6705.897040969747,
      "eccentricity": 0.0001385,
      "inclination_deg": 53.1571,
      "raan_deg": 141.0545,
      "arg_perigee_deg": 75.1742,
      "mean_anomaly_deg": 284.9434,
      "mean_motion_rev_day": 15.80947471
    }
  ]
}